GLOBALSTAR M094         
1 39074U 13005C   24130.73422955 -.00000082  00000+0  12182-3 0  9996
2 39074  51.9970 330.5131 0001086  97.2900 262.8090 12.62265535521422
GLOBALSTAR M096         
1 39075U 13005D   24130.82652755 -.00000070  00000+0  18804-3 0  9994
2 39075  52.0098  18.4296 0001116  80.1521 279.9471 12.62265255520356
GLOBALSTAR M078         
1 39076U 13005E   24130.95903092 -.00000114  00000+0 -55008-4 0  9990
2 39076  51.9858 103.0867 0001251  22.2791 337.8130 12.62268597518995
GLOBALSTAR M095         
1 39077U 13005F   24130.90544437 -.00000120  00000+0 -88485-4 0  9992
2 39077  51.9789 100.6412 0001037  47.7945 312.3009 12.62265942518841
GLOBALSTAR M087         
1 52888U 22064A   24130.77597572 -.00000074  00000+0  10306-3 0  9998
2 52888  51.9770 342.3197 0008571 266.9238  93.0682 13.37572648 92384
